ONEWEB-0362             
1 49288U 21090K   25352.20255169  .00000018  00000+0  13601-4 0  9993
2 49288  87.9193 340.9963 0001678  79.4757 280.6565 13.19725061203041
ONEWEB-0363             
1 49289U 21090L   25352.25742443 -.00000065  00000+0 -19120-3 0  9990
2 49289  87.9213 310.5209 0001998  91.1512 268.9850 13.20771708206428
ONEWEB-0364             
1 49290U 21090M   25352.14378642  .00000122  00000+0  26747-3 0  9991
2 49290  87.9200 310.5664 0001904  84.5987 275.5364 13.20771832207546
ONEWEB-0365             
1 49291U 21090N   25352.21203249  .00000011  00000+0 -42064-5 0  9990
2 49291  87.9211 340.9607 0001849  83.6502 276.4842 13.19725054202554
ONEWEB-0366             
1 49292U 21090P   25352.19944557 -.00000187  00000+0 -53814-3 0  9990
2 49292  87.8986 325.7774 0001800  86.3920 273.7416 13.14503673203789
ONEWEB-0367             
1 49293U 21090Q   25352.25584849  .00000079  00000+0  16352-3 0  9996
2 49293  87.9214 310.5206 0001831  75.7045 284.4292 13.20771351205949
ONEWEB-0368             
1 49294U 21090R   25352.15326807  .00000041  00000+0  67664-4 0  9996
2 49294  87.9202 310.5701 0002663  83.7996 276.3440 13.20771326207089
ONEWEB-0369             
1 49295U 21090S   25352.20728935 -.00000033  00000+0 -11451-3 0  9996
2 49295  87.9200 340.9882 0001878  85.1858 274.9490 13.19727109202548
ONEWEB-0370             
1 49296U 21090T   25352.26531219 -.00000085  00000+0 -24172-3 0  9991
2 49296  87.9204 310.5227 0001518  77.9814 282.1490 13.20771350205982
ONEWEB-0371             
1 49297U 21090U   25352.21518585  .00000048  00000+0  88469-4 0  9995
2 49297  87.9201 340.9742 0001782  83.1259 277.0076 13.19725518202583
ONEWEB-0372             
1 49298U 21090V   25352.25412134  .00000007  00000+0 -14946-4 0  9998
2 49298  87.9202 310.5247 0001922  78.8723 281.2627 13.20771021205956
ONEWEB-0373             
1 49299U 21090W   25352.28108569 -.00000005  00000+0 -43172-4 0  9998
2 49299  87.9200 310.5324 0001811  84.3022 275.8318 13.20770174207149
ONEWEB-0374             
1 49300U 21090X   25352.18674272 -.00000203  00000+0 -58262-3 0  9994
2 49300  87.8995 325.7584 0002212  95.5512 264.5870 13.14500565203784
ONEWEB-0375             
1 49301U 21090Y   25352.26847152  .00000053  00000+0  97223-4 0  9995
2 49301  87.9200 310.5154 0001909  99.2525 260.8825 13.20771691206641
ONEWEB-0376             
1 49302U 21090Z   25352.21359846  .00000027  00000+0  35540-4 0  9994
2 49302  87.9209 340.9623 0001962  80.6785 279.4570 13.19724029202583
ONEWEB-0377             
1 49303U 21090AA  25352.25439665  .00000076  00000+0  15537-3 0  9994
2 49303  87.9207 310.5197 0001681  84.5606 275.5719 13.20769712206636
ONEWEB-0378             
1 49304U 21090AB  25352.27650307  .00000014  00000+0  19607-5 0  9991
2 49304  87.9204 310.5296 0001921  85.4634 274.6719 13.20771098205901
