[{"OBJECT_NAME":"ONEWEB-0362","OBJECT_ID":"2021-090K","EPOCH":"2025-12-18T04:51:40.466016","MEAN_MOTION":13.19725061,"ECCENTRICITY":0.00016785,"INCLINATION":87.9193,"RA_OF_ASC_NODE":340.9963,"ARG_OF_PERICENTER":79.4757,"MEAN_ANOMALY":280.6565,"EPHEMERIS_TYPE":0,"CLASSIFICATION_TYPE":"U","NORAD_CAT_ID":49288,"ELEMENT_SET_NO":999,"REV_AT_EPOCH":20304,"BSTAR":1.3601063e-5,"MEAN_MOTION_DOT":1.8e-7,"MEAN_MOTION_DDOT":0},{"OBJECT_NAME":"ONEWEB-0363","OBJECT_ID":"2021-090L","EPOCH":"2025-12-18T06:10:41.470752","MEAN_MOTION":13.20771708,"ECCENTRICITY":0.00019987,"INCLINATION":87.9213,"RA_OF_ASC_NODE":310.5209,"ARG_OF_PERICENTER":91.1512,"MEAN_ANOMALY":268.985,"EPHEMERIS_TYPE":0,"CLASSIFICATION_TYPE":"U","NORAD_CAT_ID":49289,"ELEMENT_SET_NO":999,"REV_AT_EPOCH":20642,"BSTAR":-0.0001911956,"MEAN_MOTION_DOT":-6.5e-7,"MEAN_MOTION_DDOT":0},{"OBJECT_NAME":"ONEWEB-0364","OBJECT_ID":"2021-090M","EPOCH":"2025-12-18T03:27:03.146688","MEAN_MOTION":13.20771832,"ECCENTRICITY":0.00019049,"INCLINATION":87.92,"RA_OF_ASC_NODE":310.5664,"ARG_OF_PERICENTER":84.5987,"MEAN_ANOMALY":275.5364,"EPHEMERIS_TYPE":0,"CLASSIFICATION_TYPE":"U","NORAD_CAT_ID":49290,"ELEMENT_SET_NO":999,"REV_AT_EPOCH":20754,"BSTAR":0.00026747034,"MEAN_MOTION_DOT":1.22e-6,"MEAN_MOTION_DDOT":0},{"OBJECT_NAME":"ONEWEB-0365","OBJECT_ID":"2021-090N","EPOCH":"2025-12-18T05:05:19.607136","MEAN_MOTION":13.19725054,"ECCENTRICITY":0.00018498,"INCLINATION":87.9211,"RA_OF_ASC_NODE":340.9607,"ARG_OF_PERICENTER":83.6502,"MEAN_ANOMALY":276.4842,"EPHEMERIS_TYPE":0,"CLASSIFICATION_TYPE":"U","NORAD_CAT_ID":49291,"ELEMENT_SET_NO":999,"REV_AT_EPOCH":20255,"BSTAR":-4.206356e-6,"MEAN_MOTION_DOT":1.1e-7,"MEAN_MOTION_DDOT":0},{"OBJECT_NAME":"ONEWEB-0366","OBJECT_ID":"2021-090P","EPOCH":"2025-12-18T04:47:12.097248","MEAN_MOTION":13.14503673,"ECCENTRICITY":0.00018003,"INCLINATION":87.8986,"RA_OF_ASC_NODE":325.7774,"ARG_OF_PERICENTER":86.392,"MEAN_ANOMALY":273.7416,"EPHEMERIS_TYPE":0,"CLASSIFICATION_TYPE":"U","NORAD_CAT_ID":49292,"ELEMENT_SET_NO":999,"REV_AT_EPOCH":20378,"BSTAR":-0.00053813811,"MEAN_MOTION_DOT":-1.87e-6,"MEAN_MOTION_DDOT":0},{"OBJECT_NAME":"ONEWEB-0367","OBJECT_ID":"2021-090Q","EPOCH":"2025-12-18T06:08:25.309536","MEAN_MOTION":13.20771351,"ECCENTRICITY":0.00018311,"INCLINATION":87.9214,"RA_OF_ASC_NODE":310.5206,"ARG_OF_PERICENTER":75.7045,"MEAN_ANOMALY":284.4292,"EPHEMERIS_TYPE":0,"CLASSIFICATION_TYPE":"U","NORAD_CAT_ID":49293,"ELEMENT_SET_NO":999,"REV_AT_EPOCH":20594,"BSTAR":0.00016351747,"MEAN_MOTION_DOT":7.9e-7,"MEAN_MOTION_DDOT":0},{"OBJECT_NAME":"ONEWEB-0368","OBJECT_ID":"2021-090R","EPOCH":"2025-12-18T03:40:42.361248","MEAN_MOTION":13.20771326,"ECCENTRICITY":0.00026631,"INCLINATION":87.9202,"RA_OF_ASC_NODE":310.5701,"ARG_OF_PERICENTER":83.7996,"MEAN_ANOMALY":276.344,"EPHEMERIS_TYPE":0,"CLASSIFICATION_TYPE":"U","NORAD_CAT_ID":49294,"ELEMENT_SET_NO":999,"REV_AT_EPOCH":20708,"BSTAR":6.7664307e-5,"MEAN_MOTION_DOT":4.1e-7,"MEAN_MOTION_DDOT":0},{"OBJECT_NAME":"ONEWEB-0369","OBJECT_ID":"2021-090S","EPOCH":"2025-12-18T04:58:29.799840","MEAN_MOTION":13.19727109,"ECCENTRICITY":0.00018781,"INCLINATION":87.92,"RA_OF_ASC_NODE":340.9882,"ARG_OF_PERICENTER":85.1858,"MEAN_ANOMALY":274.949,"EPHEMERIS_TYPE":0,"CLASSIFICATION_TYPE":"U","NORAD_CAT_ID":49295,"ELEMENT_SET_NO":999,"REV_AT_EPOCH":20254,"BSTAR":-0.00011450893,"MEAN_MOTION_DOT":-3.3e-7,"MEAN_MOTION_DDOT":0},{"OBJECT_NAME":"ONEWEB-0370","OBJECT_ID":"2021-090T","EPOCH":"2025-12-18T06:22:02.973216","MEAN_MOTION":13.2077135,"ECCENTRICITY":0.00015184,"INCLINATION":87.9204,"RA_OF_ASC_NODE":310.5227,"ARG_OF_PERICENTER":77.9814,"MEAN_ANOMALY":282.149,"EPHEMERIS_TYPE":0,"CLASSIFICATION_TYPE":"U","NORAD_CAT_ID":49296,"ELEMENT_SET_NO":999,"REV_AT_EPOCH":20598,"BSTAR":-0.0002417243,"MEAN_MOTION_DOT":-8.5e-7,"MEAN_MOTION_DDOT":0},{"OBJECT_NAME":"ONEWEB-0371","OBJECT_ID":"2021-090U","EPOCH":"2025-12-18T05:09:52.057440","MEAN_MOTION":13.19725518,"ECCENTRICITY":0.00017827,"INCLINATION":87.9201,"RA_OF_ASC_NODE":340.9742,"ARG_OF_PERICENTER":83.1259,"MEAN_ANOMALY":277.0076,"EPHEMERIS_TYPE":0,"CLASSIFICATION_TYPE":"U","NORAD_CAT_ID":49297,"ELEMENT_SET_NO":999,"REV_AT_EPOCH":20258,"BSTAR":8.8468559e-5,"MEAN_MOTION_DOT":4.8e-7,"MEAN_MOTION_DDOT":0},{"OBJECT_NAME":"ONEWEB-0372","OBJECT_ID":"2021-090V","EPOCH":"2025-12-18T06:05:56.083776","MEAN_MOTION":13.20771021,"ECCENTRICITY":0.00019228,"INCLINATION":87.9202,"RA_OF_ASC_NODE":310.5247,"ARG_OF_PERICENTER":78.8723,"MEAN_ANOMALY":281.2627,"EPHEMERIS_TYPE":0,"CLASSIFICATION_TYPE":"U","NORAD_CAT_ID":49298,"ELEMENT_SET_NO":999,"REV_AT_EPOCH":20595,"BSTAR":-1.4945677e-5,"MEAN_MOTION_DOT":7.0e-8,"MEAN_MOTION_DDOT":0},{"OBJECT_NAME":"ONEWEB-0373","OBJECT_ID":"2021-090W","EPOCH":"2025-12-18T06:44:45.803616","MEAN_MOTION":13.20770174,"ECCENTRICITY":0.0001811,"INCLINATION":87.92,"RA_OF_ASC_NODE":310.5324,"ARG_OF_PERICENTER":84.3022,"MEAN_ANOMALY":275.8318,"EPHEMERIS_TYPE":0,"CLASSIFICATION_TYPE":"U","NORAD_CAT_ID":49299,"ELEMENT_SET_NO":999,"REV_AT_EPOCH":20714,"BSTAR":-4.3171623e-5,"MEAN_MOTION_DOT":-5.0e-8,"MEAN_MOTION_DDOT":0},{"OBJECT_NAME":"ONEWEB-0374","OBJECT_ID":"2021-090X","EPOCH":"2025-12-18T04:28:54.571008","MEAN_MOTION":13.14500565,"ECCENTRICITY":0.0002212,"INCLINATION":87.8995,"RA_OF_ASC_NODE":325.7584,"ARG_OF_PERICENTER":95.5512,"MEAN_ANOMALY":264.587,"EPHEMERIS_TYPE":0,"CLASSIFICATION_TYPE":"U","NORAD_CAT_ID":49300,"ELEMENT_SET_NO":999,"REV_AT_EPOCH":20378,"BSTAR":-0.00058262036,"MEAN_MOTION_DOT":-2.03e-6,"MEAN_MOTION_DDOT":0},{"OBJECT_NAME":"ONEWEB-0375","OBJECT_ID":"2021-090Y","EPOCH":"2025-12-18T06:26:35.939328","MEAN_MOTION":13.20771691,"ECCENTRICITY":0.00019091,"INCLINATION":87.92,"RA_OF_ASC_NODE":310.5154,"ARG_OF_PERICENTER":99.2525,"MEAN_ANOMALY":260.8825,"EPHEMERIS_TYPE":0,"CLASSIFICATION_TYPE":"U","NORAD_CAT_ID":49301,"ELEMENT_SET_NO":999,"REV_AT_EPOCH":20664,"BSTAR":9.7223088e-5,"MEAN_MOTION_DOT":5.3e-7,"MEAN_MOTION_DDOT":0},{"OBJECT_NAME":"ONEWEB-0376","OBJECT_ID":"2021-090Z","EPOCH":"2025-12-18T05:07:34.906944","MEAN_MOTION":13.19724029,"ECCENTRICITY":0.00019621,"INCLINATION":87.9209,"RA_OF_ASC_NODE":340.9623,"ARG_OF_PERICENTER":80.6785,"MEAN_ANOMALY":279.457,"EPHEMERIS_TYPE":0,"CLASSIFICATION_TYPE":"U","NORAD_CAT_ID":49302,"ELEMENT_SET_NO":999,"REV_AT_EPOCH":20258,"BSTAR":3.5540276e-5,"MEAN_MOTION_DOT":2.7e-7,"MEAN_MOTION_DDOT":0},{"OBJECT_NAME":"ONEWEB-0377","OBJECT_ID":"2021-090AA","EPOCH":"2025-12-18T06:06:19.870560","MEAN_MOTION":13.20769712,"ECCENTRICITY":0.00016811,"INCLINATION":87.9207,"RA_OF_ASC_NODE":310.5197,"ARG_OF_PERICENTER":84.5606,"MEAN_ANOMALY":275.5719,"EPHEMERIS_TYPE":0,"CLASSIFICATION_TYPE":"U","NORAD_CAT_ID":49303,"ELEMENT_SET_NO":999,"REV_AT_EPOCH":20663,"BSTAR":0.00015536787,"MEAN_MOTION_DOT":7.6e-7,"MEAN_MOTION_DDOT":0},{"OBJECT_NAME":"ONEWEB-0378","OBJECT_ID":"2021-090AB","EPOCH":"2025-12-18T06:38:09.865248","MEAN_MOTION":13.20771098,"ECCENTRICITY":0.00019219,"INCLINATION":87.9204,"RA_OF_ASC_NODE":310.5296,"ARG_OF_PERICENTER":85.4634,"MEAN_ANOMALY":274.6719,"EPHEMERIS_TYPE":0,"CLASSIFICATION_TYPE":"U","NORAD_CAT_ID":49304,"ELEMENT_SET_NO":999,"REV_AT_EPOCH":20590,"BSTAR":1.960666e-6,"MEAN_MOTION_DOT":1.4e-7,"MEAN_MOTION_DDOT":0}]
